HULIANWANG DIGUI-65     
1 65171U 25174H   26065.27906436  .00000055  00000+0  94472-4 0  9994
2 65171  86.4842 286.6689 0001230  89.0728 271.0547 13.24422432 27168
HULIANWANG DIGUI-66     
1 65172U 25174J   26065.27153496  .00000059  00000+0  10435-3 0  9995
2 65172  86.4877 286.7379 0001272  91.0161 269.1118 13.24422046 27167
HULIANWANG DIGUI-67     
1 65173U 25174K   26065.28667587  .00000043  00000+0  65460-4 0  9990
2 65173  86.4889 286.7665 0001269  89.4918 270.6362 13.24421670 27133
HULIANWANG DIGUI-68     
1 65228U 25178A   26065.23365125  .00000019  00000+0  92636-5 0  9992
2 65228  86.4943  48.2621 0002022  79.5893 280.5469 13.24423878 26687
HULIANWANG DIGUI-69     
1 65229U 25178B   26065.30195921  .00000024  00000+0  22081-4 0  9998
2 65229  86.4963  48.2742 0001967  80.8052 279.3305 13.24417706 26692
HULIANWANG DIGUI-70     
1 65230U 25178C   26065.29435995  .00000047  00000+0  74816-4 0  9994
2 65230  86.4902  48.1450 0002071  79.3531 280.7836 13.24418688 26699
HULIANWANG DIGUI-71     
1 65231U 25178D   26065.28677962  .00000043  00000+0  67126-4 0  9998
2 65231  86.4961  48.2623 0002021  80.6297 279.5065 13.24419517 26699
HULIANWANG DIGUI-72     
1 65232U 25178E   26065.27918198  .00000052  00000+0  87113-4 0  9995
2 65232  86.4943  48.2228 0002021  81.4325 278.7038 13.24419994 26692
HULIANWANG DIGUI-73     
1 65305U 25187A   26065.29171270 -.00000090  00000+0  72514-4 0  9992
2 65305  50.0038 214.9069 0001037 142.1054 217.9892 13.29342549 26015
HULIANWANG DIGUI-74     
1 65306U 25187B   26065.27498782 -.00000098  00000+0  57023-4 0  9997
2 65306  50.0080 214.8864 0001039 142.8153 217.2792 13.29343004 26013
HULIANWANG DIGUI-75     
1 65307U 25187C   26065.33352220 -.00000093  00000+0  66987-4 0  9995
2 65307  50.0072 214.5183 0001033 141.2749 218.8197 13.29342012 26029
HULIANWANG DIGUI-76     
1 65308U 25187D   26065.24182822 -.00000092  00000+0  70103-4 0  9999
2 65308  49.9997 215.2404 0001024 139.4877 220.6072 13.29339341 26000
HULIANWANG DIGUI-77     
1 65309U 25187E   26065.23332662 -.00000094  00000+0  64090-4 0  9998
2 65309  50.0031 215.2504 0001065 139.7412 220.3539 13.29341240 26003
HULIANWANG DIGUI-78     
1 65310U 25187F   26065.26673659 -.00000104  00000+0  43156-4 0  9999
2 65310  50.0097 214.8697 0001017 142.5104 217.5840 13.29341679 26012
HULIANWANG DIGUI-79     
1 65311U 25187G   26065.24987471 -.00000093  00000+0  66064-4 0  9998
2 65311  50.0026 215.3284 0001023 139.7050 220.3899 13.29343137 26004
HULIANWANG DIGUI-80     
1 65312U 25187H   26065.30012166 -.00000084  00000+0  85266-4 0  9991
2 65312  50.0017 214.9156 0001053 140.1288 219.9661 13.29341358 26015
