[{"OBJECT_NAME":"HULIANWANG DIGUI-65","OBJECT_ID":"2025-174H","EPOCH":"2026-03-06T06:41:51.160704","MEAN_MOTION":13.24422432,"ECCENTRICITY":0.00012307,"INCLINATION":86.4842,"RA_OF_ASC_NODE":286.6689,"ARG_OF_PERICENTER":89.0728,"MEAN_ANOMALY":271.0547,"EPHEMERIS_TYPE":0,"CLASSIFICATION_TYPE":"U","NORAD_CAT_ID":65171,"ELEMENT_SET_NO":999,"REV_AT_EPOCH":2716,"BSTAR":9.4472444e-5,"MEAN_MOTION_DOT":5.5e-7,"MEAN_MOTION_DDOT":0},{"OBJECT_NAME":"HULIANWANG DIGUI-66","OBJECT_ID":"2025-174J","EPOCH":"2026-03-06T06:31:00.620544","MEAN_MOTION":13.24422046,"ECCENTRICITY":0.00012723,"INCLINATION":86.4877,"RA_OF_ASC_NODE":286.7379,"ARG_OF_PERICENTER":91.0161,"MEAN_ANOMALY":269.1118,"EPHEMERIS_TYPE":0,"CLASSIFICATION_TYPE":"U","NORAD_CAT_ID":65172,"ELEMENT_SET_NO":999,"REV_AT_EPOCH":2716,"BSTAR":0.00010434782,"MEAN_MOTION_DOT":5.9e-7,"MEAN_MOTION_DDOT":0},{"OBJECT_NAME":"HULIANWANG DIGUI-67","OBJECT_ID":"2025-174K","EPOCH":"2026-03-06T06:52:48.795168","MEAN_MOTION":13.2442167,"ECCENTRICITY":0.00012696,"INCLINATION":86.4889,"RA_OF_ASC_NODE":286.7665,"ARG_OF_PERICENTER":89.4918,"MEAN_ANOMALY":270.6362,"EPHEMERIS_TYPE":0,"CLASSIFICATION_TYPE":"U","NORAD_CAT_ID":65173,"ELEMENT_SET_NO":999,"REV_AT_EPOCH":2713,"BSTAR":6.5460289e-5,"MEAN_MOTION_DOT":4.3e-7,"MEAN_MOTION_DDOT":0},{"OBJECT_NAME":"HULIANWANG DIGUI-68","OBJECT_ID":"2025-178A","EPOCH":"2026-03-06T05:36:27.468000","MEAN_MOTION":13.24423878,"ECCENTRICITY":0.00020229,"INCLINATION":86.4943,"RA_OF_ASC_NODE":48.2621,"ARG_OF_PERICENTER":79.5893,"MEAN_ANOMALY":280.5469,"EPHEMERIS_TYPE":0,"CLASSIFICATION_TYPE":"U","NORAD_CAT_ID":65228,"ELEMENT_SET_NO":999,"REV_AT_EPOCH":2668,"BSTAR":9.26357e-6,"MEAN_MOTION_DOT":1.9e-7,"MEAN_MOTION_DDOT":0},{"OBJECT_NAME":"HULIANWANG DIGUI-69","OBJECT_ID":"2025-178B","EPOCH":"2026-03-06T07:14:49.275744","MEAN_MOTION":13.24417706,"ECCENTRICITY":0.0001967,"INCLINATION":86.4963,"RA_OF_ASC_NODE":48.2742,"ARG_OF_PERICENTER":80.8052,"MEAN_ANOMALY":279.3305,"EPHEMERIS_TYPE":0,"CLASSIFICATION_TYPE":"U","NORAD_CAT_ID":65229,"ELEMENT_SET_NO":999,"REV_AT_EPOCH":2669,"BSTAR":2.208088e-5,"MEAN_MOTION_DOT":2.4e-7,"MEAN_MOTION_DDOT":0},{"OBJECT_NAME":"HULIANWANG DIGUI-70","OBJECT_ID":"2025-178C","EPOCH":"2026-03-06T07:03:52.699680","MEAN_MOTION":13.24418688,"ECCENTRICITY":0.00020719,"INCLINATION":86.4902,"RA_OF_ASC_NODE":48.145,"ARG_OF_PERICENTER":79.3531,"MEAN_ANOMALY":280.7836,"EPHEMERIS_TYPE":0,"CLASSIFICATION_TYPE":"U","NORAD_CAT_ID":65230,"ELEMENT_SET_NO":999,"REV_AT_EPOCH":2669,"BSTAR":7.4815732e-5,"MEAN_MOTION_DOT":4.7e-7,"MEAN_MOTION_DDOT":0},{"OBJECT_NAME":"HULIANWANG DIGUI-71","OBJECT_ID":"2025-178D","EPOCH":"2026-03-06T06:52:57.759168","MEAN_MOTION":13.24419517,"ECCENTRICITY":0.00020218,"INCLINATION":86.4961,"RA_OF_ASC_NODE":48.2623,"ARG_OF_PERICENTER":80.6297,"MEAN_ANOMALY":279.5065,"EPHEMERIS_TYPE":0,"CLASSIFICATION_TYPE":"U","NORAD_CAT_ID":65231,"ELEMENT_SET_NO":999,"REV_AT_EPOCH":2669,"BSTAR":6.7126313e-5,"MEAN_MOTION_DOT":4.3e-7,"MEAN_MOTION_DDOT":0},{"OBJECT_NAME":"HULIANWANG DIGUI-72","OBJECT_ID":"2025-178E","EPOCH":"2026-03-06T06:42:01.323072","MEAN_MOTION":13.24419994,"ECCENTRICITY":0.00020219,"INCLINATION":86.4943,"RA_OF_ASC_NODE":48.2228,"ARG_OF_PERICENTER":81.4325,"MEAN_ANOMALY":278.7038,"EPHEMERIS_TYPE":0,"CLASSIFICATION_TYPE":"U","NORAD_CAT_ID":65232,"ELEMENT_SET_NO":999,"REV_AT_EPOCH":2669,"BSTAR":8.7113463e-5,"MEAN_MOTION_DOT":5.2e-7,"MEAN_MOTION_DDOT":0},{"OBJECT_NAME":"HULIANWANG DIGUI-73","OBJECT_ID":"2025-187A","EPOCH":"2026-03-06T07:00:03.977280","MEAN_MOTION":13.29342549,"ECCENTRICITY":0.00010379,"INCLINATION":50.0038,"RA_OF_ASC_NODE":214.9069,"ARG_OF_PERICENTER":142.1054,"MEAN_ANOMALY":217.9892,"EPHEMERIS_TYPE":0,"CLASSIFICATION_TYPE":"U","NORAD_CAT_ID":65305,"ELEMENT_SET_NO":999,"REV_AT_EPOCH":2601,"BSTAR":7.2513928e-5,"MEAN_MOTION_DOT":-9.0e-7,"MEAN_MOTION_DDOT":0},{"OBJECT_NAME":"HULIANWANG DIGUI-74","OBJECT_ID":"2025-187B","EPOCH":"2026-03-06T06:35:58.947648","MEAN_MOTION":13.29343004,"ECCENTRICITY":0.00010395,"INCLINATION":50.008,"RA_OF_ASC_NODE":214.8864,"ARG_OF_PERICENTER":142.8153,"MEAN_ANOMALY":217.2792,"EPHEMERIS_TYPE":0,"CLASSIFICATION_TYPE":"U","NORAD_CAT_ID":65306,"ELEMENT_SET_NO":999,"REV_AT_EPOCH":2601,"BSTAR":5.7023223e-5,"MEAN_MOTION_DOT":-9.8e-7,"MEAN_MOTION_DDOT":0},{"OBJECT_NAME":"HULIANWANG DIGUI-75","OBJECT_ID":"2025-187C","EPOCH":"2026-03-06T08:00:16.318080","MEAN_MOTION":13.29342012,"ECCENTRICITY":0.0001033,"INCLINATION":50.0072,"RA_OF_ASC_NODE":214.5183,"ARG_OF_PERICENTER":141.2749,"MEAN_ANOMALY":218.8197,"EPHEMERIS_TYPE":0,"CLASSIFICATION_TYPE":"U","NORAD_CAT_ID":65307,"ELEMENT_SET_NO":999,"REV_AT_EPOCH":2602,"BSTAR":6.6986767e-5,"MEAN_MOTION_DOT":-9.3e-7,"MEAN_MOTION_DDOT":0},{"OBJECT_NAME":"HULIANWANG DIGUI-76","OBJECT_ID":"2025-187D","EPOCH":"2026-03-06T05:48:13.958208","MEAN_MOTION":13.29339341,"ECCENTRICITY":0.00010249,"INCLINATION":49.9997,"RA_OF_ASC_NODE":215.2404,"ARG_OF_PERICENTER":139.4877,"MEAN_ANOMALY":220.6072,"EPHEMERIS_TYPE":0,"CLASSIFICATION_TYPE":"U","NORAD_CAT_ID":65308,"ELEMENT_SET_NO":999,"REV_AT_EPOCH":2600,"BSTAR":7.0103078e-5,"MEAN_MOTION_DOT":-9.2e-7,"MEAN_MOTION_DDOT":0},{"OBJECT_NAME":"HULIANWANG DIGUI-77","OBJECT_ID":"2025-187E","EPOCH":"2026-03-06T05:35:59.419968","MEAN_MOTION":13.2934124,"ECCENTRICITY":0.00010654,"INCLINATION":50.0031,"RA_OF_ASC_NODE":215.2504,"ARG_OF_PERICENTER":139.7412,"MEAN_ANOMALY":220.3539,"EPHEMERIS_TYPE":0,"CLASSIFICATION_TYPE":"U","NORAD_CAT_ID":65309,"ELEMENT_SET_NO":999,"REV_AT_EPOCH":2600,"BSTAR":6.4089981e-5,"MEAN_MOTION_DOT":-9.4e-7,"MEAN_MOTION_DDOT":0},{"OBJECT_NAME":"HULIANWANG DIGUI-78","OBJECT_ID":"2025-187F","EPOCH":"2026-03-06T06:24:06.041376","MEAN_MOTION":13.29341679,"ECCENTRICITY":0.00010174,"INCLINATION":50.0097,"RA_OF_ASC_NODE":214.8697,"ARG_OF_PERICENTER":142.5104,"MEAN_ANOMALY":217.584,"EPHEMERIS_TYPE":0,"CLASSIFICATION_TYPE":"U","NORAD_CAT_ID":65310,"ELEMENT_SET_NO":999,"REV_AT_EPOCH":2601,"BSTAR":4.3155964e-5,"MEAN_MOTION_DOT":-1.04e-6,"MEAN_MOTION_DDOT":0},{"OBJECT_NAME":"HULIANWANG DIGUI-79","OBJECT_ID":"2025-187G","EPOCH":"2026-03-06T05:59:49.174944","MEAN_MOTION":13.29343137,"ECCENTRICITY":0.00010231,"INCLINATION":50.0026,"RA_OF_ASC_NODE":215.3284,"ARG_OF_PERICENTER":139.705,"MEAN_ANOMALY":220.3899,"EPHEMERIS_TYPE":0,"CLASSIFICATION_TYPE":"U","NORAD_CAT_ID":65311,"ELEMENT_SET_NO":999,"REV_AT_EPOCH":2600,"BSTAR":6.6064033e-5,"MEAN_MOTION_DOT":-9.3e-7,"MEAN_MOTION_DDOT":0},{"OBJECT_NAME":"HULIANWANG DIGUI-80","OBJECT_ID":"2025-187H","EPOCH":"2026-03-06T07:12:10.511424","MEAN_MOTION":13.29341358,"ECCENTRICITY":0.00010538,"INCLINATION":50.0017,"RA_OF_ASC_NODE":214.9156,"ARG_OF_PERICENTER":140.1288,"MEAN_ANOMALY":219.9661,"EPHEMERIS_TYPE":0,"CLASSIFICATION_TYPE":"U","NORAD_CAT_ID":65312,"ELEMENT_SET_NO":999,"REV_AT_EPOCH":2601,"BSTAR":8.5265659e-5,"MEAN_MOTION_DOT":-8.4e-7,"MEAN_MOTION_DDOT":0}]
